XRISM                   
1 57800U 23137A   24055.33760592  .00005692  00000+0  44353-3 0  9990
2 57800  31.0048  16.4651 0010003 163.5348 196.5613 14.99714308 25492
